EWS-G1 (GOES 13)        
1 29155U 06018A   24111.85902959 -.00000176  00000+0  00000+0 0  9996
2 29155   2.4765  85.9060 0087016 253.4928 291.8647  0.99151217 35461
